ONEWEB-0233             
1 48795U 21045AE  26188.70643443  .00000069  00000+0  14946-3 0  9992
2 48795  87.8988 255.1466 0002174 106.8593 253.2776 13.15549332246996
ONEWEB-0190             
1 48796U 21045AF  26188.69388794  .00000036  00000+0  62727-4 0  9991
2 48796  87.8995 255.1120 0002037 118.3532 241.7804 13.15548437247069
ONEWEB-0236             
1 48797U 21045AG  26188.71132380  .00001626  00000+0  42838-2 0  9998
2 48797  87.8985 255.1177 0001949  97.8391 262.2961 13.15541045246953
ONEWEB-0248             
1 48798U 21045AH  26188.72399367  .00000102  00000+0  23641-3 0  9990
2 48798  87.9000 255.1002 0002316 109.9423 250.1957 13.15548920247119
ONEWEB-0225             
1 48799U 21045AJ  26188.67012044 -.00000165  00000+0 -47252-3 0  9994
2 48799  87.8996 255.1182 0002053 114.9406 245.1938 13.15547832247111
ONEWEB-0215             
1 48800U 21045AK  26188.71606998  .00000162  00000+0  39754-3 0  9992
2 48800  87.9002 255.0926 0002188 116.9522 243.1832 13.15548835246998
ONEWEB-0216             
1 48801U 21045AL  26188.72557948  .00000083  00000+0  18678-3 0  9998
2 48801  87.9001 255.1047 0001992  96.5100 263.6257 13.15547576247002
ONEWEB-0239             
1 48802U 21045AM  26188.73033227  .00000058  00000+0  11938-3 0  9993
2 48802  87.8987 255.1081 0002443 116.0892 244.0490 13.15547828247047
ONEWEB-0249             
1 48967U 21060A   26187.58408944 -.00000021  00000+0 -88814-4 0  9996
2 48967  87.9082 224.9253 0002165  97.1179 263.0199 13.16596447242166
ONEWEB-0250             
1 48968U 21060B   26187.62727491 -.00000020  00000+0 -76686-4 0  9996
2 48968  87.9083 222.6098 0003136  94.5527 265.5968 13.25835145242798
ONEWEB-0252             
1 48970U 21060D   26187.61498796  .00000030  00000+0  45951-4 0  9991
2 48970  87.9080 224.9117 0001837  95.0582 265.0759 13.16594936242218
ONEWEB-0253             
1 48971U 21060E   26187.60390618  .00000027  00000+0  35768-4 0  9996
2 48971  87.9078 224.9194 0002167  96.6238 263.5140 13.16594853242140
ONEWEB-0254             
1 48972U 21060F   26188.06938679 -.00000031  00000+0 -11407-3 0  9993
2 48972  87.9082 224.8248 0002229 102.4404 257.6977 13.16593224242205
ONEWEB-0255             
1 48973U 21060G   26188.03138715  .00000045  00000+0  85176-4 0  9992
2 48973  87.9083 224.8385 0002110  99.7646 260.3724 13.16593958242276
ONEWEB-0256             
1 48974U 21060H   26187.60153072 -.00000036  00000+0 -12854-3 0  9992
2 48974  87.9077 224.9273 0002020  91.9961 268.1402 13.16594501242185
ONEWEB-0257             
1 48975U 21060J   26187.63398459  .00000028  00000+0  39911-4 0  9999
2 48975  87.9081 224.9087 0001975  98.0506 262.0849 13.16593131242147
